CCSDS_OMM_VERS = 2.0
CREATION_DATE  = 
ORIGINATOR     = 

OBJECT_NAME    = STARLINK-36840
OBJECT_ID      = 2026-034A
CENTER_NAME    = EARTH
REF_FRAME      = TEME
TIME_SYSTEM    = UTC
MEAN_ELEMENT_THEORY = SGP/SGP4

EPOCH          = 2026-03-06T22:47:58.544160
MEAN_MOTION    = 15.80924221
ECCENTRICITY   = .000253
INCLINATION    = 53.1593
RA_OF_ASC_NODE = 225.0877
ARG_OF_PERICENTER = 56.2872
MEAN_ANOMALY   = 303.8392

EPHEMERIS_TYPE = 0
CLASSIFICATION_TYPE = U
NORAD_CAT_ID   = 67850
ELEMENT_SET_NO = 999
REV_AT_EPOCH   = 350
BSTAR          = .11658E-2
MEAN_MOTION_DOT = .23636E-2
MEAN_MOTION_DDOT = 0

CCSDS_OMM_VERS = 2.0
CREATION_DATE  = 
ORIGINATOR     = 

OBJECT_NAME    = STARLINK-36348
OBJECT_ID      = 2026-034B
CENTER_NAME    = EARTH
REF_FRAME      = TEME
TIME_SYSTEM    = UTC
MEAN_ELEMENT_THEORY = SGP/SGP4

EPOCH          = 2026-03-06T22:46:52.011840
MEAN_MOTION    = 15.81015095
ECCENTRICITY   = .0000885
INCLINATION    = 53.1594
RA_OF_ASC_NODE = 225.0823
ARG_OF_PERICENTER = 46.3195
MEAN_ANOMALY   = 313.7901

EPHEMERIS_TYPE = 0
CLASSIFICATION_TYPE = U
NORAD_CAT_ID   = 67851
ELEMENT_SET_NO = 999
REV_AT_EPOCH   = 350
BSTAR          = .14191E-2
MEAN_MOTION_DOT = .290924E-2
MEAN_MOTION_DDOT = 0

CCSDS_OMM_VERS = 2.0
CREATION_DATE  = 
ORIGINATOR     = 

OBJECT_NAME    = STARLINK-36276
OBJECT_ID      = 2026-034C
CENTER_NAME    = EARTH
REF_FRAME      = TEME
TIME_SYSTEM    = UTC
MEAN_ELEMENT_THEORY = SGP/SGP4

EPOCH          = 2026-03-06T22:45:47.160000
MEAN_MOTION    = 15.80935049
ECCENTRICITY   = .000146
INCLINATION    = 53.1596
RA_OF_ASC_NODE = 225.0775
ARG_OF_PERICENTER = 61.9653
MEAN_ANOMALY   = 298.1517

EPHEMERIS_TYPE = 0
CLASSIFICATION_TYPE = U
NORAD_CAT_ID   = 67852
ELEMENT_SET_NO = 999
REV_AT_EPOCH   = 350
BSTAR          = .13954E-2
MEAN_MOTION_DOT = .284789E-2
MEAN_MOTION_DDOT = 0

CCSDS_OMM_VERS = 2.0
CREATION_DATE  = 
ORIGINATOR     = 

OBJECT_NAME    = STARLINK-36785
OBJECT_ID      = 2026-034D
CENTER_NAME    = EARTH
REF_FRAME      = TEME
TIME_SYSTEM    = UTC
MEAN_ELEMENT_THEORY = SGP/SGP4

EPOCH          = 2026-03-06T22:44:42.385920
MEAN_MOTION    = 15.81014879
ECCENTRICITY   = .0000557
INCLINATION    = 53.1595
RA_OF_ASC_NODE = 225.0720
ARG_OF_PERICENTER = 45.8424
MEAN_ANOMALY   = 314.2645

EPHEMERIS_TYPE = 0
CLASSIFICATION_TYPE = U
NORAD_CAT_ID   = 67853
ELEMENT_SET_NO = 999
REV_AT_EPOCH   = 350
BSTAR          = .13923E-2
MEAN_MOTION_DOT = .285241E-2
MEAN_MOTION_DDOT = 0

CCSDS_OMM_VERS = 2.0
CREATION_DATE  = 
ORIGINATOR     = 

OBJECT_NAME    = STARLINK-36608
OBJECT_ID      = 2026-034E
CENTER_NAME    = EARTH
REF_FRAME      = TEME
TIME_SYSTEM    = UTC
MEAN_ELEMENT_THEORY = SGP/SGP4

EPOCH          = 2026-03-07T03:16:44.386176
MEAN_MOTION    = 15.81016594
ECCENTRICITY   = .0000777
INCLINATION    = 53.1594
RA_OF_ASC_NODE = 224.1165
ARG_OF_PERICENTER = 68.2550
MEAN_ANOMALY   = 291.8555

EPHEMERIS_TYPE = 0
CLASSIFICATION_TYPE = U
NORAD_CAT_ID   = 67854
ELEMENT_SET_NO = 999
REV_AT_EPOCH   = 352
BSTAR          = .18571E-2
MEAN_MOTION_DOT = .385208E-2
MEAN_MOTION_DDOT = 0

CCSDS_OMM_VERS = 2.0
CREATION_DATE  = 
ORIGINATOR     = 

OBJECT_NAME    = STARLINK-36838
OBJECT_ID      = 2026-034F
CENTER_NAME    = EARTH
REF_FRAME      = TEME
TIME_SYSTEM    = UTC
MEAN_ELEMENT_THEORY = SGP/SGP4

EPOCH          = 2026-03-06T22:42:32.849856
MEAN_MOTION    = 15.81024920
ECCENTRICITY   = .0000748
INCLINATION    = 53.1596
RA_OF_ASC_NODE = 225.0619
ARG_OF_PERICENTER = 55.3794
MEAN_ANOMALY   = 304.7299

EPHEMERIS_TYPE = 0
CLASSIFICATION_TYPE = U
NORAD_CAT_ID   = 67855
ELEMENT_SET_NO = 999
REV_AT_EPOCH   = 350
BSTAR          = .16316E-2
MEAN_MOTION_DOT = .336564E-2
MEAN_MOTION_DDOT = 0

CCSDS_OMM_VERS = 2.0
CREATION_DATE  = 
ORIGINATOR     = 

OBJECT_NAME    = STARLINK-36843
OBJECT_ID      = 2026-034G
CENTER_NAME    = EARTH
REF_FRAME      = TEME
TIME_SYSTEM    = UTC
MEAN_ELEMENT_THEORY = SGP/SGP4

EPOCH          = 2026-03-06T22:40:23.325024
MEAN_MOTION    = 15.80995696
ECCENTRICITY   = .0000769
INCLINATION    = 53.1595
RA_OF_ASC_NODE = 225.0513
ARG_OF_PERICENTER = 43.4669
MEAN_ANOMALY   = 316.6415

EPHEMERIS_TYPE = 0
CLASSIFICATION_TYPE = U
NORAD_CAT_ID   = 67856
ELEMENT_SET_NO = 999
REV_AT_EPOCH   = 350
BSTAR          = .12569E-2
MEAN_MOTION_DOT = .256323E-2
MEAN_MOTION_DDOT = 0

CCSDS_OMM_VERS = 2.0
CREATION_DATE  = 
ORIGINATOR     = 

OBJECT_NAME    = STARLINK-36828
OBJECT_ID      = 2026-034H
CENTER_NAME    = EARTH
REF_FRAME      = TEME
TIME_SYSTEM    = UTC
MEAN_ELEMENT_THEORY = SGP/SGP4

EPOCH          = 2026-03-06T22:41:28.143168
MEAN_MOTION    = 15.81016492
ECCENTRICITY   = .0000632
INCLINATION    = 53.1592
RA_OF_ASC_NODE = 225.0574
ARG_OF_PERICENTER = 102.2440
MEAN_ANOMALY   = 257.8653

EPHEMERIS_TYPE = 0
CLASSIFICATION_TYPE = U
NORAD_CAT_ID   = 67857
ELEMENT_SET_NO = 999
REV_AT_EPOCH   = 350
BSTAR          = .14995E-2
MEAN_MOTION_DOT = .30809E-2
MEAN_MOTION_DDOT = 0

CCSDS_OMM_VERS = 2.0
CREATION_DATE  = 
ORIGINATOR     = 

OBJECT_NAME    = STARLINK-36837
OBJECT_ID      = 2026-034J
CENTER_NAME    = EARTH
REF_FRAME      = TEME
TIME_SYSTEM    = UTC
MEAN_ELEMENT_THEORY = SGP/SGP4

EPOCH          = 2026-03-06T22:39:18.391968
MEAN_MOTION    = 15.81020636
ECCENTRICITY   = .0000798
INCLINATION    = 53.1596
RA_OF_ASC_NODE = 225.0460
ARG_OF_PERICENTER = 37.7759
MEAN_ANOMALY   = 322.3319

EPHEMERIS_TYPE = 0
CLASSIFICATION_TYPE = U
NORAD_CAT_ID   = 67858
ELEMENT_SET_NO = 999
REV_AT_EPOCH   = 350
BSTAR          = .15286E-2
MEAN_MOTION_DOT = .314387E-2
MEAN_MOTION_DDOT = 0

CCSDS_OMM_VERS = 2.0
CREATION_DATE  = 
ORIGINATOR     = 

OBJECT_NAME    = STARLINK-36393
OBJECT_ID      = 2026-034K
CENTER_NAME    = EARTH
REF_FRAME      = TEME
TIME_SYSTEM    = UTC
MEAN_ELEMENT_THEORY = SGP/SGP4

EPOCH          = 2026-03-06T22:38:13.579872
MEAN_MOTION    = 15.81001603
ECCENTRICITY   = .0000496
INCLINATION    = 53.1598
RA_OF_ASC_NODE = 225.0409
ARG_OF_PERICENTER = 81.9661
MEAN_ANOMALY   = 278.1418

EPHEMERIS_TYPE = 0
CLASSIFICATION_TYPE = U
NORAD_CAT_ID   = 67859
ELEMENT_SET_NO = 999
REV_AT_EPOCH   = 350
BSTAR          = .12845E-2
MEAN_MOTION_DOT = .262229E-2
MEAN_MOTION_DDOT = 0

CCSDS_OMM_VERS = 2.0
CREATION_DATE  = 
ORIGINATOR     = 

OBJECT_NAME    = STARLINK-35873
OBJECT_ID      = 2026-034L
CENTER_NAME    = EARTH
REF_FRAME      = TEME
TIME_SYSTEM    = UTC
MEAN_ELEMENT_THEORY = SGP/SGP4

EPOCH          = 2026-03-06T22:37:08.642496
MEAN_MOTION    = 15.81013058
ECCENTRICITY   = .0000314
INCLINATION    = 53.1594
RA_OF_ASC_NODE = 225.0358
ARG_OF_PERICENTER = 145.4666
MEAN_ANOMALY   = 214.6377

EPHEMERIS_TYPE = 0
CLASSIFICATION_TYPE = U
NORAD_CAT_ID   = 67860
ELEMENT_SET_NO = 999
REV_AT_EPOCH   = 353
BSTAR          = .12928E-2
MEAN_MOTION_DOT = .264119E-2
MEAN_MOTION_DDOT = 0

CCSDS_OMM_VERS = 2.0
CREATION_DATE  = 
ORIGINATOR     = 

OBJECT_NAME    = STARLINK-36325
OBJECT_ID      = 2026-034M
CENTER_NAME    = EARTH
REF_FRAME      = TEME
TIME_SYSTEM    = UTC
MEAN_ELEMENT_THEORY = SGP/SGP4

EPOCH          = 2026-03-06T22:36:04.265856
MEAN_MOTION    = 15.80986033
ECCENTRICITY   = .0000988
INCLINATION    = 53.1597
RA_OF_ASC_NODE = 225.0312
ARG_OF_PERICENTER = 44.0036
MEAN_ANOMALY   = 316.1065

EPHEMERIS_TYPE = 0
CLASSIFICATION_TYPE = U
NORAD_CAT_ID   = 67861
ELEMENT_SET_NO = 999
REV_AT_EPOCH   = 350
BSTAR          = .12283E-2
MEAN_MOTION_DOT = .250193E-2
MEAN_MOTION_DDOT = 0

