STARLINK-36840          
1 67850U 26034A   26065.94998315  .00236360  00000+0  11658-2 0  9990
2 67850  53.1593 225.0877 0002530  56.2872 303.8392 15.80924221  3505
STARLINK-36348          
1 67851U 26034B   26065.94921310  .00290924  00000+0  14191-2 0  9993
2 67851  53.1594 225.0823 0000885  46.3195 313.7901 15.81015095  3504
STARLINK-36276          
1 67852U 26034C   26065.94846250  .00284789  00000+0  13954-2 0  9991
2 67852  53.1596 225.0775 0001460  61.9653 298.1517 15.80935049  3503
STARLINK-36785          
1 67853U 26034D   26065.94771280  .00285241  00000+0  13923-2 0  9992
2 67853  53.1595 225.0720 0000557  45.8424 314.2645 15.81014879  3508
STARLINK-36608          
1 67854U 26034E   26066.13662484  .00385208  00000+0  18571-2 0  9998
2 67854  53.1594 224.1165 0000777  68.2550 291.8555 15.81016594  3522
STARLINK-36838          
1 67855U 26034F   26065.94621354  .00336564  00000+0  16316-2 0  9994
2 67855  53.1596 225.0619 0000748  55.3794 304.7299 15.81024920  3503
STARLINK-36843          
1 67856U 26034G   26065.94471441  .00256323  00000+0  12569-2 0  9995
2 67856  53.1595 225.0513 0000769  43.4669 316.6415 15.80995696  3506
STARLINK-36828          
1 67857U 26034H   26065.94546462  .00308090  00000+0  14995-2 0  9996
2 67857  53.1592 225.0574 0000632 102.2440 257.8653 15.81016492  3500
STARLINK-36837          
1 67858U 26034J   26065.94396287  .00314387  00000+0  15286-2 0  9995
2 67858  53.1596 225.0460 0000798  37.7759 322.3319 15.81020636  3509
STARLINK-36393          
1 67859U 26034K   26065.94321273  .00262229  00000+0  12845-2 0  9994
2 67859  53.1598 225.0409 0000496  81.9661 278.1418 15.81001603  3504
STARLINK-35873          
1 67860U 26034L   26065.94246114  .00264119  00000+0  12928-2 0  9998
2 67860  53.1594 225.0358 0000314 145.4666 214.6377 15.81013058  3534
STARLINK-36325          
1 67861U 26034M   26065.94171604  .00250193  00000+0  12283-2 0  9991
2 67861  53.1597 225.0312 0000988  44.0036 316.1065 15.80986033  3500
